NORAD_CAT_ID,OBJECT_NAME,OBJECT_TYPE,EPOCH,MEAN_MOTION,ECCENTRICITY,INCLINATION,RA_OF_ASC_NODE,ARG_OF_PERICENTER,MEAN_ANOMALY,BSTAR,MEAN_MOTION_DOT,MEAN_MOTION_DDOT,TLE_LINE0,TLE_LINE1,TLE_LINE2,SEMIMAJOR_AXIS,PERIOD,APOGEE,PERIGEE,DECAYED
51731.0,STARLINK-3514,PAYLOAD,2022-07-29 00:00:00,15.08857882,0.0001984,53.218,123.4278,58.2355,67.32300000000001,-0.0011302999999999,-0.00018241,0.0,0 STARLINK-3514,1 51731U 22016T   22210.00001157 -.00018241  00000-0 -11303-2 0  9997,2 51731  53.2180 123.4278 0001984  58.2355  67.3230 15.08857882 25454,6917.826,95.436,541.063,538.318,0.0
51731.0,STARLINK-3514,PAYLOAD,2022-07-29 14:00:01,15.088131400000002,0.0001768,53.2182,120.808,60.6962,355.1871,0.0018905,0.00029905,0.0,0 STARLINK-3514,1 51731U 22016T   22210.58334491  .00029905  00000-0  18905-2 0  9992,2 51731  53.2182 120.8080 0001768  60.6962 355.1871 15.08813140  1305,6917.962,95.439,541.0509999999998,538.604,0.0
51731.0,STARLINK-3514,PAYLOAD,2022-07-29 22:00:00,15.08848992,0.000187,53.2183,119.3128,59.5737,7.8811,-0.001819,-0.00029128,0.0,0 STARLINK-3514,1 51731U 22016T   22210.91667824 -.00029128  00000-0 -18190-2 0  9993,2 51731  53.2183 119.3128 0001870  59.5737   7.8811 15.08848992  1301,6917.853,95.437,541.012,538.424,0.0
51731.0,STARLINK-3514,PAYLOAD,2022-07-30 06:00:00,15.0882524,0.0001931,53.2179,117.8172,54.7751,24.2731,0.0017142,0.00027088,0.0,0 STARLINK-3514,1 51731U 22016T   22211.25001157  .00027088  00000-0  17142-2 0  9999,2 51731  53.2179 117.8172 0001931  54.7751  24.2731 15.08825240 25647,6917.926,95.438,541.126,538.455,0.0
51731.0,STARLINK-3514,PAYLOAD,2022-07-30 14:00:01,15.08816627,0.0001773,53.218,116.3192,62.5936,28.0512,0.0026201,0.00041631,0.0,0 STARLINK-3514,1 51731U 22016T   22211.58334491  .00041631  00000-0  26201-2 0  9991,2 51731  53.2180 116.3192 0001773  62.5936  28.0512 15.08816627  1306,6917.9519999999975,95.439,541.043,538.59,0.0
51731.0,STARLINK-3514,PAYLOAD,2022-07-30 22:00:00,15.08858307,0.0001889,53.2179,114.8241,61.6068,40.6214,-0.0018699,-0.0002993999999999,0.0,0 STARLINK-3514,1 51731U 22016T   22211.91667824 -.00029940  00000-0 -18699-2 0  9990,2 51731  53.2179 114.8241 0001889  61.6068  40.6214 15.08858307 25740,6917.824000000001,95.436,540.996,538.383,0.0
51731.0,STARLINK-3514,PAYLOAD,2022-07-31 00:00:00,15.08847281,0.000193,53.2178,114.4504,59.859,135.2739,-0.00082056,-0.00013326,0.0,0 STARLINK-3514,1 51731U 22016T   22212.00001157 -.00013326  00000-0 -82056-3 0  9992,2 51731  53.2178 114.4504 0001930  59.8590 135.2739 15.08847281  1301,6917.858,95.437,541.058,538.388,0.0
51731.0,STARLINK-3514,PAYLOAD,2022-07-31 14:00:01,15.08812548,0.0001720999999999,53.2173,111.8303,64.1575,61.2851,0.0013172,0.00020722,0.0,0 STARLINK-3514,1 51731U 22016T   22212.58334491  .00020722  00000-0  13172-2 0  9993,2 51731  53.2173 111.8303 0001721  64.1575  61.2851 15.08812548  1305,6917.964,95.439,541.02,538.639,0.0
51731.0,STARLINK-3514,PAYLOAD,2022-07-31 22:00:00,15.08838029,0.0001821999999999,53.2173,110.3352,62.1369,74.877,-0.0017301999999999,-0.00027718,0.0,0 STARLINK-3514,1 51731U 22016T   22212.91667824 -.00027718  00000-0 -17302-2 0  9992,2 51731  53.2173 110.3352 0001822  62.1369  74.8770 15.08838029 25896,6917.886,95.438,541.012,538.491,0.0
51731.0,STARLINK-3514,PAYLOAD,2022-08-01 14:00:01,15.08811629,0.0001754999999999,53.2166,107.3412,65.9912,94.1921,0.0025763,0.0004091999999999,0.0,0 STARLINK-3514,1 51731U 22016T   22213.58334491  .00040920  00000-0  25763-2 0  9995,2 51731  53.2166 107.3412 0001755  65.9912  94.1921 15.08811629  1301,6917.967,95.439,541.0459999999998,538.618,0.0
51731.0,STARLINK-3514,PAYLOAD,2022-08-01 22:00:00,15.08845901,0.0001883,53.2167,105.8461,63.6549,108.1075,-0.0014372,-0.00023092,0.0,0 STARLINK-3514,1 51731U 22016T   22213.91667824 -.00023092  00000-0 -14372-2 0  9998,2 51731  53.2167 105.8461 0001883  63.6549 108.1075 15.08845901  1308,6917.861999999999,95.437,541.03,538.425,0.0
51731.0,STARLINK-3514,PAYLOAD,2022-08-02 06:00:02,15.08842646,0.0001921,53.2163,104.3499,60.1883,123.2271,7.8356e-05,9.59e-06,0.0,0 STARLINK-3514,1 51731U 22016T   22214.25002315  .00000959  00000-0  78356-4 0  9993,2 51731  53.2163 104.3499 0001921  60.1883 123.2271 15.08842646 26097,6917.871999999999,95.437,541.066,538.408,0.0
51731.0,STARLINK-3514,PAYLOAD,2022-08-02 14:00:01,15.08821855,0.0001844,53.2163,102.8518,67.383,127.5712,0.0024103,0.00038262,0.0,0 STARLINK-3514,1 51731U 22016T   22214.58334491  .00038262  00000-0  24103-2 0  9999,2 51731  53.2163 102.8518 0001844  67.3830 127.5712 15.08821855  1300,6917.936,95.439,541.077,538.525,0.0
51731.0,STARLINK-3514,PAYLOAD,2022-08-03 14:00:01,15.08811803,0.0001806,53.2165,98.3622,66.7202,163.0416,0.0026230999999999,0.00041674,0.0,0 STARLINK-3514,1 51731U 22016T   22215.58334491  .00041674  00000-0  26231-2 0  9995,2 51731  53.2165  98.3622 0001806  66.7202 163.0416 15.08811803 26294,6917.967,95.439,541.081,538.582,0.0
51731.0,STARLINK-3514,PAYLOAD,2022-08-03 22:00:01,15.0884171,0.0001950999999999,53.2167,96.8674,63.0122,178.3933,-0.00084824,-0.00013763,0.0,0 STARLINK-3514,1 51731U 22016T   22215.91668981 -.00013763  00000-0 -84824-3 0  9999,2 51731  53.2167  96.8674 0001951  63.0122 178.3933 15.08841710  1306,6917.875,95.437,541.09,538.39,0.0
51731.0,STARLINK-3514,PAYLOAD,2022-08-04 06:00:00,15.08852371,0.0001936,53.2168,95.3709,60.8909,192.0372,-0.0010282,-0.00016621,0.0,0 STARLINK-3514,1 51731U 22016T   22216.25001157 -.00016621  00000-0 -10282-2 0  9995,2 51731  53.2168  95.3709 0001936  60.8909 192.0372 15.08852371 26392,6917.843000000003,95.437,541.047,538.368,0.0
51731.0,STARLINK-3514,PAYLOAD,2022-08-04 14:00:01,15.08838809,0.0001841,53.2171,93.8729,67.4904,197.0438,0.00034013,5.129e-05,0.0,0 STARLINK-3514,1 51731U 22016T   22216.58334491  .00005129  00000-0  34013-3 0  9999,2 51731  53.2171  93.8729 0001841  67.4904 197.0438 15.08838809  1306,6917.884,95.438,541.023,538.475,0.0
51731.0,STARLINK-3514,PAYLOAD,2022-08-04 22:00:00,15.0883367,0.0001916999999999,53.2173,92.3782,62.0701,214.064,-0.0011868,-0.00019123,0.0,0 STARLINK-3514,1 51731U 22016T   22216.91667824 -.00019123  00000-0 -11868-2 0  9998,2 51731  53.2173  92.3782 0001917  62.0701 214.0640 15.08833670  1307,6917.9,95.438,541.091,538.439,0.0
51731.0,STARLINK-3514,PAYLOAD,2022-08-05 06:00:02,15.08845258,0.0001884,53.2174,90.8816,60.7253,227.0468,-0.001498,-0.00024053,0.0,0 STARLINK-3514,1 51731U 22016T   22217.25002315 -.00024053  00000-0 -14980-2 0  9990,2 51731  53.2174  90.8816 0001884  60.7253 227.0468 15.08845258 26549,6917.864000000001,95.437,541.033,538.4259999999998,0.0
51731.0,STARLINK-3514,PAYLOAD,2022-08-05 14:00:01,15.08818726,0.0001825,53.2178,89.3838,68.0898,231.2777,0.0026491999999999,0.00042102,0.0,0 STARLINK-3514,1 51731U 22016T   22217.58335648  .00042102  00000-0  26492-2 0  9998,2 51731  53.2178  89.3838 0001825  68.0898 231.2777 15.08818726  1308,6917.945,95.439,541.073,538.548,0.0
51731.0,STARLINK-3514,PAYLOAD,2022-08-05 22:00:00,15.08845126,0.0001942,53.2179,87.8892,62.882,248.0131,-0.00055995,-9.19e-05,0.0,0 STARLINK-3514,1 51731U 22016T   22217.91667824 -.00009190  00000-0 -55995-3 0  9992,2 51731  53.2179  87.8892 0001942  62.8820 248.0131 15.08845126  1303,6917.865,95.437,541.073,538.386,0.0
51731.0,STARLINK-3514,PAYLOAD,2022-08-06 00:00:02,15.08833291,0.0001959,53.2181,87.5154,62.0313,341.8292,0.0011675,0.00018338,0.0,0 STARLINK-3514,1 51731U 22016T   22218.00002315  .00018338  00000-0  11675-2 0  9999,2 51731  53.2181  87.5154 0001959  62.0313 341.8292 15.08833291 26667,6917.901,95.438,541.121,538.411,0.0
51731.0,STARLINK-3514,PAYLOAD,2022-08-06 14:00:01,15.08810636,0.0001712,53.2183,84.895,68.8669,265.2353,0.0026003,0.00041305,0.0,0 STARLINK-3514,1 51731U 22016T   22218.58334491  .00041305  00000-0  26003-2 0  9996,2 51731  53.2183  84.8950 0001712  68.8669 265.2353 15.08810636  1307,6917.97,95.439,541.02,538.651,0.0
51731.0,STARLINK-3514,PAYLOAD,2022-08-06 22:00:00,15.08831706,0.000184,53.2183,83.4005,62.9899,282.6879,-0.00051731,-8.51e-05,0.0,0 STARLINK-3514,1 51731U 22016T   22218.91667824 -.00008510  00000-0 -51731-3 0  9992,2 51731  53.2183  83.4005 0001840  62.9899 282.6879 15.08831706  1302,6917.906,95.438,541.044,538.498,0.0
51731.0,STARLINK-3514,PAYLOAD,2022-08-07 06:00:00,15.08851671,0.0001771999999999,53.218,81.9036,63.1127,294.1432,-0.0019868999999999,-0.00031781,0.0,0 STARLINK-3514,1 51731U 22016T   22219.25001157 -.00031781  00000-0 -19869-2 0  9992,2 51731  53.2180  81.9036 0001772  63.1127 294.1432 15.08851671 26849,6917.845,95.437,540.936,538.484,0.0
51731.0,STARLINK-3514,PAYLOAD,2022-08-07 14:00:01,15.08826545,0.0001710999999999,53.2183,80.4064,71.2021,297.6496,0.0022478,0.00035654,0.0,0 STARLINK-3514,1 51731U 22016T   22219.58334491  .00035654  00000-0  22478-2 0  9999,2 51731  53.2183  80.4064 0001711  71.2021 297.6496 15.08826545  1307,6917.922,95.438,540.97,538.6030000000002,0.0
51731.0,STARLINK-3514,PAYLOAD,2022-08-08 00:00:02,15.08829346,0.0001817,53.2183,78.538,63.9343,49.4821,0.0020264,0.000321,0.0,0 STARLINK-3514,1 51731U 22016T   22220.00002315  .00032100  00000-0  20264-2 0  9999,2 51731  53.2183  78.5380 0001817  63.9343  49.4821 15.08829346  1305,6917.913000000001,95.438,541.035,538.521,0.0
51731.0,STARLINK-3514,PAYLOAD,2022-08-08 06:00:00,15.08872949,0.0001735,53.2178,77.4148,65.3763,326.6753,-0.0018634,-0.00029849,0.0,0 STARLINK-3514,1 51731U 22016T   22220.25001157 -.00029849  00000-0 -18634-2 0  9995,2 51731  53.2178  77.4148 0001735  65.3763 326.6753 15.08872949 27006,6917.78,95.435,540.845,538.444,0.0
51731.0,STARLINK-3514,PAYLOAD,2022-08-08 13:48:28,15.08848783,0.0001847,53.2195,75.9524,66.4516,293.6670000000001,5.677600000000001e-05,6.16e-06,0.0,0 STARLINK-3514,1 51731U 22016T   22220.57532687  .00000616  00000-0  56776-4 0  9997,2 51731  53.2195  75.9524 0001847  66.4516 293.6670 15.08848783 25938,6917.854,95.437,540.996,538.441,0.0
